[{"OBJECT_NAME":"GECAM-B","OBJECT_ID":"2020-094B","EPOCH":"2026-02-27T04:39:26.451360","MEAN_MOTION":15.01652363,"ECCENTRICITY":0.0010635,"INCLINATION":28.9982,"RA_OF_ASC_NODE":10.8844,"ARG_OF_PERICENTER":257.2071,"MEAN_ANOMALY":102.7339,"EPHEMERIS_TYPE":0,"CLASSIFICATION_TYPE":"U","NORAD_CAT_ID":47235,"ELEMENT_SET_NO":999,"REV_AT_EPOCH":28517,"BSTAR":0.00023073,"MEAN_MOTION_DOT":3.224e-5,"MEAN_MOTION_DDOT":0},{"OBJECT_NAME":"STARLINK-35268","OBJECT_ID":"2025-218V","EPOCH":"2026-03-09T15:08:31.186464","MEAN_MOTION":15.05655017,"ECCENTRICITY":0.0002163,"INCLINATION":97.6029,"RA_OF_ASC_NODE":292.9394,"ARG_OF_PERICENTER":74.6897,"MEAN_ANOMALY":285.4569,"EPHEMERIS_TYPE":0,"CLASSIFICATION_TYPE":"U","NORAD_CAT_ID":65810,"ELEMENT_SET_NO":999,"REV_AT_EPOCH":2496,"BSTAR":0.00029931,"MEAN_MOTION_DOT":4.261e-5,"MEAN_MOTION_DDOT":0}]
