GECAM-B                 
1 47235U 20094B   26058.19405615  .00003224  00000+0  23073-3 0  9996
2 47235  28.9982  10.8844 0010635 257.2071 102.7339 15.01652363285175
STARLINK-35268          
1 65810U 25218V   26068.63091651  .00004261  00000+0  29931-3 0  9990
2 65810  97.6029 292.9394 0002163  74.6897 285.4569 15.05655017 24961
